[{"OBJECT_NAME":"GAOFEN-12 01","OBJECT_ID":"2019-082A","EPOCH":"2026-03-09T23:49:51.973824","MEAN_MOTION":14.80365933,"ECCENTRICITY":0.00017748,"INCLINATION":97.8143,"RA_OF_ASC_NODE":77.9831,"ARG_OF_PERICENTER":56.9861,"MEAN_ANOMALY":303.1522,"EPHEMERIS_TYPE":0,"CLASSIFICATION_TYPE":"U","NORAD_CAT_ID":44819,"ELEMENT_SET_NO":999,"REV_AT_EPOCH":33941,"BSTAR":9.6158816e-5,"MEAN_MOTION_DOT":6.83e-6,"MEAN_MOTION_DDOT":0},{"OBJECT_NAME":"KUIPER-00170","OBJECT_ID":"2025-217X","EPOCH":"2026-03-09T07:36:16.011072","MEAN_MOTION":14.79913097,"ECCENTRICITY":7.549e-5,"INCLINATION":51.9002,"RA_OF_ASC_NODE":39.732,"ARG_OF_PERICENTER":111.3299,"MEAN_ANOMALY":248.7744,"EPHEMERIS_TYPE":0,"CLASSIFICATION_TYPE":"U","NORAD_CAT_ID":65783,"ELEMENT_SET_NO":999,"REV_AT_EPOCH":2489,"BSTAR":0.00028047595,"MEAN_MOTION_DOT":1.917e-5,"MEAN_MOTION_DDOT":0}]
